NORAD_CAT_ID,OBJECT_NAME,OBJECT_TYPE,EPOCH,MEAN_MOTION,ECCENTRICITY,INCLINATION,RA_OF_ASC_NODE,ARG_OF_PERICENTER,MEAN_ANOMALY,BSTAR,MEAN_MOTION_DOT,MEAN_MOTION_DDOT,TLE_LINE0,TLE_LINE1,TLE_LINE2,SEMIMAJOR_AXIS,PERIOD,APOGEE,PERIGEE,DECAYED
55948.0,STARLINK-5900,PAYLOAD,2023-11-25 01:50:51,14.98337382,0.0002141,70.0003,211.448,273.6094,86.482,5.8731e-05,6.08e-06,0.0,0 STARLINK-5900,1 55948U 23037AL  23329.07698403  .00000608  00000-0  58731-4 0  9994,2 55948  70.0003 211.4480 0002141 273.6094  86.4820 14.98337382 39640,6950.17,96.107,573.523,570.547,0.0
55948.0,STARLINK-5900,PAYLOAD,2023-11-25 21:04:28,14.98326179,0.0002511,69.9998,209.4273,267.7094,92.3778,7.525e-05,8.05e-06,0.0,0 STARLINK-5900,1 55948U 23037AL  23329.87810972  .00000805  00000-0  75250-4 0  9993,2 55948  69.9998 209.4273 0002511 267.7094  92.3778 14.98326179 39428,6950.205,96.107,573.815,570.325,0.0
55948.0,STARLINK-5900,PAYLOAD,2023-11-26 01:52:52,14.98329962,0.0002774,69.9992,208.9223,272.583,87.5011,6.9051e-05,7.31e-06,0.0,0 STARLINK-5900,1 55948U 23037AL  23330.07838751  .00000731  00000-0  69051-4 0  9992,2 55948  69.9992 208.9223 0002774 272.5830  87.5011 14.98329962 39456,6950.193,96.107,573.986,570.13,0.0
55948.0,STARLINK-5900,PAYLOAD,2023-11-26 19:30:21,14.98328708,0.0002247,70.0008,207.0701,273.6621,86.4281,2.2416e-05,1.75e-06,0.0,0 STARLINK-5900,1 55948U 23037AL  23330.81274961  .00000175  00000-0  22416-4 0  9997,2 55948  70.0008 207.0701 0002247 273.6621  86.4281 14.98328708 39907,6950.197,96.107,573.624,570.5,0.0
55948.0,STARLINK-5900,PAYLOAD,2023-11-26 21:06:29,14.98326335,0.0001996,70.0018,206.9032,226.5355,133.5638,-1.7887e-05,-3.06e-06,0.0,0 STARLINK-5900,1 55948U 23037AL  23330.87951074 -.00000306  00000-0 -17887-4 0  9994,2 55948  70.0018 206.9032 0001996 226.5355 133.5638 14.98326335 39571,6950.204,96.107,573.456,570.682,0.0
55948.0,STARLINK-5900,PAYLOAD,2023-11-27 14:43:58,14.98326521,0.0002085,70.0005,205.0508,250.9767,109.1166,7.0476e-05,7.48e-06,0.0,0 STARLINK-5900,1 55948U 23037AL  23331.61386814  .00000748  00000-0  70476-4 0  9992,2 55948  70.0005 205.0508 0002085 250.9767 109.1166 14.98326521 39687,6950.204,96.107,573.518,570.62,0.0
55948.0,STARLINK-5900,PAYLOAD,2023-11-27 17:56:14,14.98327813,0.0002161,70.0004,204.714,243.9245,116.1692,4.8672e-05,4.88e-06,0.0,0 STARLINK-5900,1 55948U 23037AL  23331.74738806  .00000488  00000-0  48672-4 0  9992,2 55948  70.0004 204.7140 0002161 243.9245 116.1692 14.98327813 39702,6950.2,96.107,573.567,570.563,0.0
55948.0,STARLINK-5900,PAYLOAD,2023-11-28 01:56:54,14.98327116,0.0002166,70.0004,203.8725,249.3344,110.7582,6.3103e-05,6.6e-06,0.0,0 STARLINK-5900,1 55948U 23037AL  23332.08118792  .00000660  00000-0  63103-4 0  9994,2 55948  70.0004 203.8725 0002166 249.3344 110.7582 14.98327116 40094,6950.202,96.107,573.572,570.561,0.0
55948.0,STARLINK-5900,PAYLOAD,2023-11-28 19:34:22,14.98429658,0.0002462,70.0004,202.0208,266.2745,93.8132,-0.0016256,-0.00019485,0.0,0 STARLINK-5900,1 55948U 23037AL  23332.81553443 -.00019485  00000-0 -16256-2 0  9993,2 55948  70.0004 202.0208 0002462 266.2745  93.8132 14.98429658 40202,6949.885,96.101,573.461,570.039,0.0
55948.0,STARLINK-5900,PAYLOAD,2023-11-28 22:46:38,14.98380053,0.0001758,70.0003,201.6842,253.0424,107.0542,-0.00082168,-9.895e-05,0.0,0 STARLINK-5900,1 55948U 23037AL  23332.94905794 -.00009895  00000-0 -82168-3 0  9997,2 55948  70.0003 201.6842 0001758 253.0424 107.0542 14.98380053 39885,6950.038,96.104,573.125,570.681,0.0
55948.0,STARLINK-5900,PAYLOAD,2023-11-29 00:22:46,14.98389876,0.0001819,70.0004,201.5159,255.0742,105.0216,-0.0009778,-0.00011758,0.0,0 STARLINK-5900,1 55948U 23037AL  23333.01581372 -.00011758  00000-0 -97780-3 0  9995,2 55948  70.0004 201.5159 0001819 255.0742 105.0216 14.98389876 40238,6950.008,96.103,573.137,570.609,0.0
55948.0,STARLINK-5900,PAYLOAD,2023-11-29 19:36:24,14.98324061,0.0002495,70.0003,199.4961,273.3635,86.7239,-7.446e-05,-9.81e-06,0.0,0 STARLINK-5900,1 55948U 23037AL  23333.81695242 -.00000981  00000-0 -74460-4 0  9992,2 55948  70.0003 199.4961 0002495 273.3635  86.7239 14.98324061 40356,6950.211,96.107,573.81,570.342,0.0
55948.0,STARLINK-5900,PAYLOAD,2023-11-30 00:24:47,14.98351954,0.00029,69.9999,198.9913,254.2406,105.8434,-0.00028187,-3.456e-05,0.0,0 STARLINK-5900,1 55948U 23037AL  23334.01721759 -.00003456  00000-0 -28187-3 0  9992,2 55948  69.9999 198.9913 0002900 254.2406 105.8434 14.98351954 40387,6950.125,96.106,574.006,569.974,0.0
55948.0,STARLINK-5900,PAYLOAD,2023-11-30 19:38:25,14.98328413,0.0002326,70.0009,196.972,236.8115,123.2821,-2.8977e-06,-1.27e-06,0.0,0 STARLINK-5900,1 55948U 23037AL  23334.81834717 -.00000127  00000-0 -28977-5 0  9990,2 55948  70.0009 196.9720 0002326 236.8115 123.2821 14.98328413 40503,6950.198,96.107,573.679,570.446,0.0
55948.0,STARLINK-5900,PAYLOAD,2023-12-01 00:26:53,14.98269959,0.0001968,70.003,196.4723,253.6556,106.4386,-0.00065443,-7.88e-05,0.0,0 STARLINK-5900,1 55948U 23037AL  23335.01867933 -.00007880  00000-0 -65443-3 0  9999,2 55948  70.0030 196.4723 0001968 253.6556 106.4386 14.98269959 40533,6950.379,96.111,573.611,570.876,0.0
55948.0,STARLINK-5900,PAYLOAD,2023-12-01 19:40:21,14.9840591,0.0003167,70.0031,194.4519,197.223,162.8822,0.0003095,3.609e-05,0.0,0 STARLINK-5900,1 55948U 23037AL  23335.81969205  .00003609  00000-0  30950-3 0  9990,2 55948  70.0031 194.4519 0003167 197.2230 162.8822 14.98405910 40653,6949.958,96.102,574.024,569.622,0.0
55948.0,STARLINK-5900,PAYLOAD,2023-12-01 22:52:46,14.98277731,0.0002907,70.0026,194.115,213.5869,146.5106,-0.0011472,-0.00013736,0.0,0 STARLINK-5900,1 55948U 23037AL  23335.95332153 -.00013736  00000-0 -11472-2 0  9992,2 55948  70.0026 194.1150 0002907 213.5869 146.5106 14.98277731 40333,6950.355,96.11,574.24,570.199,0.0
55948.0,STARLINK-5900,PAYLOAD,2023-12-02 00:28:54,14.98286827,0.0002921,70.0024,193.9464,227.6899,132.4013,-0.0010334,-0.00012388,0.0,0 STARLINK-5900,1 55948U 23037AL  23336.02007179 -.00012388  00000-0 -10334-2 0  9996,2 55948  70.0024 193.9464 0002921 227.6899 132.4013 14.98286827 40686,6950.326,96.11,574.222,570.161,0.0
55948.0,STARLINK-5900,PAYLOAD,2023-12-02 13:17:54,14.98330141,0.0002458,70.0012,192.5988,253.7768,106.3121,4.6152e-05,4.58e-06,0.0,0 STARLINK-5900,1 55948U 23037AL  23336.55410198  .00000458  00000-0  46152-4 0  9995,2 55948  70.0012 192.5988 0002458 253.7768 106.3121 14.98330141 40420,6950.192,96.107,573.766,570.349,0.0
55948.0,STARLINK-5900,PAYLOAD,2023-12-02 19:42:26,14.98327537,0.0002298,70.001,191.9249,232.4413,127.6537,-5.117e-06,-1.54e-06,0.0,0 STARLINK-5900,1 55948U 23037AL  23336.82114537 -.00000154  00000-0 -51170-5 0  9995,2 55948  70.0010 191.9249 0002298 232.4413 127.6537 14.98327537 40808,6950.201,96.107,573.663,570.468,0.0
55948.0,STARLINK-5900,PAYLOAD,2023-12-02 22:54:43,14.98321671,0.0001989,70.001,191.5886,268.4963,91.5968,-3.8389e-05,-5.51e-06,0.0,0 STARLINK-5900,1 55948U 23037AL  23336.95467210 -.00000551  00000-0 -38389-4 0  9995,2 55948  70.0010 191.5886 0001989 268.4963  91.5968 14.98321671 40480,6950.219,96.108,573.466,570.701,0.0
55948.0,STARLINK-5900,PAYLOAD,2023-12-03 00:30:55,14.98265544,0.000195,70.0009,191.4199,260.336,99.7579,-0.00067875,-8.168e-05,0.0,0 STARLINK-5900,1 55948U 23037AL  23337.02148116 -.00008168  00000-0 -67875-3 0  9998,2 55948  70.0009 191.4199 0001950 260.3360  99.7579 14.98265544 40837,6950.392,96.111,573.613,570.902,0.0
55948.0,STARLINK-5900,PAYLOAD,2023-12-03 19:44:28,14.98325002,0.00022,69.9991,189.3966,253.8417,106.25,-4.3012e-05,-6.06e-06,0.0,0 STARLINK-5900,1 55948U 23037AL  23337.82255037 -.00000606  00000-0 -43012-4 0  9994,2 55948  69.9991 189.3966 0002200 253.8417 106.2500 14.98325002 40958,6950.208,96.107,573.602,570.544,0.0
55948.0,STARLINK-5900,PAYLOAD,2023-12-04 00:32:52,14.98326139,0.0002243,69.999,188.8919,256.1456,103.9453,-8.4886e-05,-1.105e-05,0.0,0 STARLINK-5900,1 55948U 23037AL  23338.02283149 -.00001105  00000-0 -84886-4 0  9991,2 55948  69.9990 188.8919 0002243 256.1456 103.9453 14.98326139 40644,6950.205,96.107,573.629,570.511,0.0
55948.0,STARLINK-5900,PAYLOAD,2023-12-05 00:34:53,14.9833057,0.0002574,69.9986,186.3669,271.0193,89.0671,5.3581e-05,5.46e-06,0.0,0 STARLINK-5900,1 55948U 23037AL  23339.02422520  .00000546  00000-0  53581-4 0  9994,2 55948  69.9986 186.3669 0002574 271.0193  89.0671 14.98330570 41130,6950.191,96.107,573.845,570.267,0.0
55948.0,STARLINK-5900,PAYLOAD,2023-12-05 23:01:03,14.98176417,0.000233,69.9976,184.0109,264.7144,95.3749,-0.0013585,-0.000162,0.0,0 STARLINK-5900,1 55948U 23037AL  23339.95906903 -.00016200  00000-0 -13585-2 0  9992,2 55948  69.9976 184.0109 0002330 264.7144  95.3749 14.98176417 41277,6950.668,96.117,574.152,570.913,0.0
55948.0,STARLINK-5900,PAYLOAD,2023-12-06 11:50:01,14.98285542,0.0002853,69.9993,182.6647,276.7438,83.3396,-0.00010111,-1.298e-05,0.0,0 STARLINK-5900,1 55948U 23037AL  23340.49307062 -.00001298  00000-0 -10111-3 0  9998,2 55948  69.9993 182.6647 0002853 276.7438  83.3396 14.98285542 41350,6950.33,96.11,574.178,570.212,0.0
55948.0,STARLINK-5900,PAYLOAD,2023-12-06 13:25:59,14.98314567,0.0002936,70.0002,182.4971,273.7263,86.3561,-0.00025112,-3.087e-05,0.0,0 STARLINK-5900,1 55948U 23037AL  23340.55972091 -.00003087  00000-0 -25112-3 0  9990,2 55948  70.0002 182.4971 0002936 273.7263  86.3561 14.98314567 41028,6950.241,96.108,574.146,570.065,0.0
55948.0,STARLINK-5900,PAYLOAD,2023-12-06 18:14:22,14.98333518,0.0002987,69.9992,181.9867,251.3254,108.7581,-2.4308e-05,-3.83e-06,0.0,0 STARLINK-5900,1 55948U 23037AL  23340.75998021 -.00000383  00000-0 -24308-4 0  9996,2 55948  69.9992 181.9867 0002987 251.3254 108.7581 14.98333518 41397,6950.182,96.107,574.123,569.971,0.0
55948.0,STARLINK-5900,PAYLOAD,2023-12-06 21:26:38,14.98333442,0.0002985,69.9994,181.6507,253.8313,106.2517,-2.1546e-05,-3.5e-06,0.0,0 STARLINK-5900,1 55948U 23037AL  23340.89349998 -.00000350  00000-0 -21546-4 0  9999,2 55948  69.9994 181.6507 0002985 253.8313 106.2517 14.98333442 41071,6950.182,96.107,574.122,569.973,0.0
